Unnamed: 0,NORAD_CAT_ID,OBJECT_NAME,EPOCH,MEAN_MOTION,ECCENTRICITY,INCLINATION,RA_OF_ASC_NODE,ARG_OF_PERICENTER,MEAN_ANOMALY,BSTAR,MEAN_MOTION_DOT,MEAN_MOTION_DDOT,TLE_LINE1,TLE_LINE2,SEMIMAJOR_AXIS,PERIOD,APOGEE,PERIGEE,alltitude
1661385,48481,STARLINK-2706,2021-10-17 03:55:25.885056,15.06389967,0.0001814,53.0541,204.6019,61.9254,298.1918,0.00012663,1.605e-05,0,1 48481U 21040BF  21290.16349404  .00001605  00000-0  12663-3 0  9990,2 48481  53.0541 204.6019 0001814  61.9254 298.1918 15.06389967 24501,6925.379,95.593,548.501,545.988,547.5350112315634
1659408,48481,STARLINK-2706,2021-10-16 12:00:02.119392,15.06385004,0.0001744,53.0543,207.5803,61.7778,298.3387,0.00010509,1.283e-05,0,1 48481U 21040BF  21289.50002453  .00001283  00000-0  10509-3 0  9995,2 48481  53.0543 207.5803 0001744  61.7778 298.3387 15.06385004 24406,6925.395,95.593,548.467,546.052,547.56443525982
1657156,48481,STARLINK-2706,2021-10-16 04:02:20.157504,15.06383596,0.0001749,53.0542,209.0694,61.4986,298.6179,8.79e-05,1.027e-05,0,1 48481U 21040BF  21289.16828886  .00001027  00000-0  87900-4 0  9999,2 48481  53.0542 209.0694 0001749  61.4986 298.6179 15.06383596 24353,6925.399,95.593,548.475,546.053,547.5622021118236
1656725,48481,STARLINK-2706,2021-10-16 02:26:47.787936,15.06382724,0.0001747,53.0542,209.3673,61.5168,298.5997,8.1598e-05,9.33e-06,0,1 48481U 21040BF  21289.10194199  .00000933  00000-0  81598-4 0  9998,2 48481  53.0542 209.3673 0001747  61.5168 298.5997 15.06382724 24342,6925.402,95.593,548.476,546.057,547.5707454702188
1654505,48481,STARLINK-2706,2021-10-15 18:29:05.790624,15.06388476,0.0001816,53.0543,210.8557,59.7573,300.3596,-5.9545e-05,-1.168e-05,0,1 48481U 21040BF  21288.77020591 -.00001168  00000-0 -59545-4 0  9994,2 48481  53.0543 210.8557 0001816  59.7573 300.3596 15.06388476 24298,6925.384,95.593,548.507,545.991,547.4966759624753
1654503,48481,STARLINK-2706,2021-10-15 18:29:05.790624,15.06388476,0.0001816,53.0543,210.8557,59.7573,300.3596,-5.9545e-05,-1.168e-05,0,1 48481U 21040BF  21288.77020591 -.00001168  00000-0 -59545-4 0  9994,2 48481  53.0543 210.8557 0001816  59.7573 300.3596 15.06388476 25570,6925.384,95.593,548.507,545.991,547.4966759624753
1651100,48481,STARLINK-2706,2021-10-15 04:09:14.327136,15.0638588,0.000173,53.0547,213.5356,59.037,301.0788,-9.0921e-05,-1.635e-05,0,1 48481U 21040BF  21288.17308249 -.00001635  00000-0 -90921-4 0  9999,2 48481  53.0547 213.5356 0001730  59.0370 301.0788 15.06385880 24200,6925.392,95.593,548.455,546.059,547.5182249775207
1647490,48481,STARLINK-2706,2021-10-14 12:13:50.169216,15.06386329,0.0001658,53.0547,216.5135,60.2249,299.8904,-9.8315e-05,-1.745e-05,0,1 48481U 21040BF  21287.50960844 -.00001745  00000-0 -98315-4 0  9997,2 48481  53.0547 216.5135 0001658  60.2249 299.8904 15.06386329 25389,6925.39,95.593,548.404,546.107,547.5618829882659
1647489,48481,STARLINK-2706,2021-10-14 12:13:50.169216,15.06386329,0.0001658,53.0547,216.5135,60.2249,299.8904,-9.8315e-05,-1.745e-05,0,1 48481U 21040BF  21287.50960844 -.00001745  00000-0 -98315-4 0  9997,2 48481  53.0547 216.5135 0001658  60.2249 299.8904 15.06386329 24108,6925.39,95.593,548.404,546.107,547.5618829882659
1643886,48481,STARLINK-2706,2021-10-13 12:20:43.180224,15.06402056,0.0001597,53.0543,220.9832,59.5898,300.5248,8.3534e-05,9.63e-06,0,1 48481U 21040BF  21286.51438866  .00000963  00000-0  83534-4 0  9997,2 48481  53.0543 220.9832 0001597  59.5898 300.5248 15.06402056 23959,6925.342,95.592,548.313,546.101,547.5241812667052
1641347,48481,STARLINK-2706,2021-10-13 01:11:56.934528,15.063973,0.0001571,53.0542,223.0677,60.2069,299.9076,8.589e-05,9.98e-06,0,1 48481U 21040BF  21286.04996452  .00000998  00000-0  85890-4 0  9990,2 48481  53.0542 223.0677 0001571  60.2069 299.9076 15.06397300 25160,6925.357,95.592,548.31,546.134,547.5637394164941
1638020,48481,STARLINK-2706,2021-10-12 06:05:28.119552,15.06406073,0.0001547,53.0539,226.6419,58.5964,301.5177,6.1979e-05,6.42e-06,0,1 48481U 21040BF  21285.25379768  .00000642  00000-0  61979-4 0  9995,2 48481  53.0539 226.6419 0001547  58.5964 301.5177 15.06406073 23760,6925.33,95.592,548.266,546.124,547.513013950461
1637570,48481,STARLINK-2706,2021-10-12 02:54:23.525568,15.06404514,0.0001544,53.0539,227.2377,58.4626,301.6514,4.7721e-05,4.29e-06,0,1 48481U 21040BF  21285.12110562  .00000429  00000-0  47721-4 0  9998,2 48481  53.0539 227.2377 0001544  58.4626 301.6514 15.06404514 25026,6925.335,95.592,548.269,546.13,547.5198243749496
1635296,48481,STARLINK-2706,2021-10-11 14:10:05.159136,15.06395945,0.0001592,53.0548,229.6204,60.065,300.0497,4.9052e-05,4.49e-06,0,1 48481U 21040BF  21284.59033749  .00000449  00000-0  49052-4 0  9990,2 48481  53.0548 229.6204 0001592  60.0650 300.0497 15.06395945 23668,6925.361,95.592,548.329,546.123,547.5524456815622
1633769,48481,STARLINK-2706,2021-10-11 09:23:28.201920,15.06396115,0.0001513,53.0538,230.5142,57.5624,302.5511,4.0106e-05,3.16e-06,0,1 48481U 21040BF  21284.39129653  .00000316  00000-0  40106-4 0  9992,2 48481  53.0538 230.5142 0001513  57.5624 302.5511 15.06396115 24917,6925.36,95.592,548.273,546.178,547.5390567988375
1630531,48481,STARLINK-2706,2021-10-10 14:16:59.985408,15.06390608,0.0001598,53.0531,234.0881,59.7905,300.3242,-5.385e-05,-1.083e-05,0,1 48481U 21040BF  21283.59513872 -.00001083  00000-0 -53850-4 0  9997,2 48481  53.0531 234.0881 0001598  59.7905 300.3242 15.06390608 24792,6925.377,95.593,548.349,546.136,547.5682486392474
1630532,48481,STARLINK-2706,2021-10-10 14:16:59.985408,15.06390608,0.0001598,53.0531,234.0881,59.7905,300.3242,-5.385e-05,-1.083e-05,0,1 48481U 21040BF  21283.59513872 -.00001083  00000-0 -53850-4 0  9997,2 48481  53.0531 234.0881 0001598  59.7905 300.3242 15.06390608 23511,6925.377,95.593,548.349,546.136,547.5682486392474
1628572,48481,STARLINK-2706,2021-10-10 06:19:17.200992,15.06402874,0.0001509,53.0546,235.5783,60.5516,299.5623,4.7121e-05,4.2e-06,0,1 48481U 21040BF  21283.26339353  .00000420  00000-0  47121-4 0  9997,2 48481  53.0546 235.5783 0001509  60.5516 299.5623 15.06402874 23469,6925.34,95.592,548.25,546.16,547.5679900196745
1627999,48481,STARLINK-2706,2021-10-10 03:08:12.448032,15.06402781,0.000146,53.054,236.1738,58.13,301.9831,4.3335e-05,3.64e-06,0,1 48481U 21040BF  21283.13069963  .00000364  00000-0  43335-4 0  9990,2 48481  53.0540 236.1738 0001460  58.1300 301.9831 15.06402781 24726,6925.34,95.592,548.216,546.194,547.5500744647793
1624325,48481,STARLINK-2706,2021-10-09 04:50:39.833952,15.06394135,0.0001366,53.0537,240.3438,58.7768,301.3354,4.8352e-05,4.39e-06,0,1 48481U 21040BF  21282.20184993  .00000439  00000-0  48352-4 0  9995,2 48481  53.0537 240.3438 0001366  58.7768 301.3354 15.06394135 23305,6925.367,95.593,548.178,546.286,547.6229673727099
1620673,48481,STARLINK-2706,2021-10-08 14:30:48.527712,15.06389483,0.0001237,53.0537,243.024,58.4566,301.6544,0.00015007,1.954e-05,0,1 48481U 21040BF  21281.60472833  .00001954  00000-0  15007-3 0  9994,2 48481  53.0537 243.0240 0001237  58.4566 301.6544 15.06389483 23210,6925.381,95.593,548.102,546.389,547.6772567773068
1620672,48481,STARLINK-2706,2021-10-08 14:30:48.527712,15.06389483,0.0001237,53.0537,243.024,58.4566,301.6544,0.00015007,1.954e-05,0,1 48481U 21040BF  21281.60472833  .00001954  00000-0  15007-3 0  9994,2 48481  53.0537 243.0240 0001237  58.4566 301.6544 15.06389483 24491,6925.381,95.593,548.102,546.389,547.6772567773068
1618417,48481,STARLINK-2706,2021-10-08 04:57:33.877440,15.06403679,0.0001212,53.0537,244.811,55.9625,304.1479,2.4875e-05,8.9e-07,0,1 48481U 21040BF  21281.20664210  .00000089  00000-0  24875-4 0  9994,2 48481  53.0537 244.8110 0001212  55.9625 304.1479 15.06403679 23158,6925.337,95.592,548.042,546.363,547.6147159164129
1618416,48481,STARLINK-2706,2021-10-08 04:57:33.877440,15.06403679,0.0001212,53.0537,244.811,55.9625,304.1479,2.4875e-05,8.9e-07,0,1 48481U 21040BF  21281.20664210  .00000089  00000-0  24875-4 0  9994,2 48481  53.0537 244.8110 0001212  55.9625 304.1479 15.06403679 24430,6925.337,95.592,548.042,546.363,547.6147159164129
1615920,48481,STARLINK-2706,2021-10-07 14:37:42.927168,15.0639917,0.0001155,53.0541,247.4918,53.8912,306.2184,1.2994e-05,-8.8e-07,0,1 48481U 21040BF  21280.60952462 -.00000088  00000-0  12994-4 0  9995,2 48481  53.0541 247.4918 0001155  53.8912 306.2184 15.06399170 23066,6925.351,95.592,548.016,546.416,547.6274137996796
1614217,48481,STARLINK-2706,2021-10-07 08:15:33.647616,15.0639671,0.0001123,53.0537,248.6828,51.5199,308.5891,-2.7658e-06,-3.23e-06,0,1 48481U 21040BF  21280.34413944 -.00000323  00000-0 -27658-5 0  9990,2 48481  53.0537 248.6828 0001123  51.5199 308.5891 15.06396710 23024,6925.359,95.592,548.001,546.446,547.620372274978
1613681,48481,STARLINK-2706,2021-10-07 03:28:56.592480,15.0639533,0.0001111,53.0539,249.5767,52.6449,307.4641,1.3554e-07,-2.79e-06,0,1 48481U 21040BF  21280.14509945 -.00000279  00000-0  13554-6 0  9995,2 48481  53.0539 249.5767 0001111  52.6449 307.4641 15.06395330 24271,6925.363,95.592,547.997,546.458,547.6413138596686
1609900,48481,STARLINK-2706,2021-10-06 08:22:27.582240,15.06401589,0.0001047,53.0538,253.1511,50.9938,309.1144,0.00011515,1.434e-05,0,1 48481U 21040BF  21279.34893035  .00001434  00000-0  11515-3 0  9996,2 48481  53.0538 253.1511 0001047  50.9938 309.1144 15.06401589 22875,6925.344,95.592,547.934,546.484,547.6325791286675
1609899,48481,STARLINK-2706,2021-10-06 08:22:27.582240,15.06401589,0.0001047,53.0538,253.1511,50.9938,309.1144,0.00011515,1.434e-05,0,1 48481U 21040BF  21279.34893035  .00001434  00000-0  11515-3 0  9996,2 48481  53.0538 253.1511 0001047  50.9938 309.1144 15.06401589 24158,6925.344,95.592,547.934,546.484,547.6325791286675
1605715,48481,STARLINK-2706,2021-10-05 05:18:17.774784,15.06400211,9.79e-05,53.0538,258.2148,50.2311,309.8764,7.0883e-06,-1.76e-06,0,1 48481U 21040BF  21278.22103906 -.00000176  00000-0  70883-5 0  9991,2 48481  53.0538 258.2148 0000979  50.2311 309.8764 15.06400211 22706,6925.348,95.592,547.891,546.535,547.6608938042355
